{
  "type": "FeatureCollection",
  "features": [
    {
      "type": "Feature",
      "properties": {
        "norad_id": 33886,
        "name": "IRIDIUM 33 DEB",
        "group": "iridium-33-debris",
        "lat": 69.1852951193831,
        "lon": -126.84224475905535,
        "alt_km": 765.4544927095094,
        "timestamp": "2025-12-23T09:49:07.467868+00:00",
        "meta_object_name": "IRIDIUM 33 DEB",
        "meta_object_id": "1997-051BF",
        "meta_epoch": "2025-12-22T15:26:54.804768",
        "meta_mean_motion": 14.36062759,
        "meta_eccentricity": 0.00132105,
        "meta_inclination": 86.3822,
        "meta_ra_of_asc_node": 63.0599,
        "meta_arg_of_pericenter": 206.3704,
        "meta_mean_anomaly": 269.6473,
        "meta_ephemeris_type": 0,
        "meta_classification_type": "U",
        "meta_norad_cat_id": 33886,
        "meta_element_set_no": 999,
        "meta_rev_at_epoch": 88194,
        "meta_bstar": 0.00016601054,
        "meta_mean_motion_dot": 5.03e-06,
        "meta_mean_motion_ddot": 0,
        "tle_line1": "1 33886U 97051BF  25356.64368987  .00000503  00000+0  16601-3 0  9996",
        "tle_line2": "2 33886  86.3822  63.0599 0013210 206.3704 269.6473 14.36062759881940"
      },
      "geometry": {
        "type": "Point",
        "coordinates": [
          -126.84224475905535,
          69.1852951193831
        ]
      }
    },
    {
      "type": "Feature",
      "properties": {
        "norad_id": 33887,
        "name": "IRIDIUM 33 DEB",
        "group": "iridium-33-debris",
        "lat": 85.95951362215617,
        "lon": 112.58334526917302,
        "alt_km": 760.4451824626685,
        "timestamp": "2025-12-23T09:49:07.467878+00:00",
        "meta_object_name": "IRIDIUM 33 DEB",
        "meta_object_id": "1997-051BG",
        "meta_epoch": "2025-12-22T19:10:48.619776",
        "meta_mean_motion": 14.37229526,
        "meta_eccentricity": 0.00055151,
        "meta_inclination": 86.3042,
        "meta_ra_of_asc_node": 359.0569,
        "meta_arg_of_pericenter": 187.2998,
        "meta_mean_anomaly": 350.5389,
        "meta_ephemeris_type": 0,
        "meta_classification_type": "U",
        "meta_norad_cat_id": 33887,
        "meta_element_set_no": 999,
        "meta_rev_at_epoch": 88309,
        "meta_bstar": 0.00012980787,
        "meta_mean_motion_dot": 4.06e-06,
        "meta_mean_motion_ddot": 0,
        "tle_line1": "1 33887U 97051BG  25356.79917384  .00000406  00000+0  12981-3 0  9993",
        "tle_line2": "2 33887  86.3042 359.0569 0005515 187.2998 350.5389 14.37229526883093"
      },
      "geometry": {
        "type": "Point",
        "coordinates": [
          112.58334526917302,
          85.95951362215617
        ]
      }
    },
    {
      "type": "Feature",
      "properties": {
        "norad_id": 33953,
        "name": "IRIDIUM 33 DEB",
        "group": "iridium-33-debris",
        "lat": -76.43869624417424,
        "lon": 33.94826869975215,
        "alt_km": 725.9985095706379,
        "timestamp": "2025-12-23T09:49:07.467889+00:00",
        "meta_object_name": "IRIDIUM 33 DEB",
        "meta_object_id": "1997-051BN",
        "meta_epoch": "2025-12-22T04:44:25.619136",
        "meta_mean_motion": 14.55406947,
        "meta_eccentricity": 0.00178347,
        "meta_inclination": 86.3836,
        "meta_ra_of_asc_node": 49.6744,
        "meta_arg_of_pericenter": 73.9809,
        "meta_mean_anomaly": 345.1929,
        "meta_ephemeris_type": 0,
        "meta_classification_type": "U",
        "meta_norad_cat_id": 33953,
        "meta_element_set_no": 999,
        "meta_rev_at_epoch": 88441,
        "meta_bstar": 0.0010994661,
        "meta_mean_motion_dot": 4.805e-05,
        "meta_mean_motion_ddot": 0,
        "tle_line1": "1 33953U 97051BN  25356.19751874  .00004805  00000+0  10995-2 0  9990",
        "tle_line2": "2 33953  86.3836  49.6744 0017834  73.9809 345.1929 14.55406947884415"
      },
      "geometry": {
        "type": "Point",
        "coordinates": [
          33.94826869975215,
          -76.43869624417424
        ]
      }
    },
    {
      "type": "Feature",
      "properties": {
        "norad_id": 33960,
        "name": "IRIDIUM 33 DEB",
        "group": "iridium-33-debris",
        "lat": 18.679728288297436,
        "lon": 103.21351620131122,
        "alt_km": 614.2098930531265,
        "timestamp": "2025-12-23T09:49:07.467900+00:00",
        "meta_object_name": "IRIDIUM 33 DEB",
        "meta_object_id": "1997-051BV",
        "meta_epoch": "2025-12-22T20:25:56.627904",
        "meta_mean_motion": 14.85668232,
        "meta_eccentricity": 0.00072159,
        "meta_inclination": 86.2544,
        "meta_ra_of_asc_node": 284.7457,
        "meta_arg_of_pericenter": 44.6643,
        "meta_mean_anomaly": 15.2245,
        "meta_ephemeris_type": 0,
        "meta_classification_type": "U",
        "meta_norad_cat_id": 33960,
        "meta_element_set_no": 999,
        "meta_rev_at_epoch": 89017,
        "meta_bstar": 0.0029026593,
        "meta_mean_motion_dot": 0.00025254,
        "meta_mean_motion_ddot": 0,
        "tle_line1": "1 33960U 97051BV  25356.85134986  .00025254  00000+0  29027-2 0  9997",
        "tle_line2": "2 33960  86.2544 284.7457 0007215  44.6643  15.2245 14.85668232890170"
      },
      "geometry": {
        "type": "Point",
        "coordinates": [
          103.21351620131122,
          18.679728288297436
        ]
      }
    },
    {
      "type": "Feature",
      "properties": {
        "norad_id": 33966,
        "name": "IRIDIUM 33 DEB",
        "group": "iridium-33-debris",
        "lat": -8.519985278926846,
        "lon": -138.01017280703448,
        "alt_km": 725.9349980085135,
        "timestamp": "2025-12-23T09:49:07.467910+00:00",
        "meta_object_name": "IRIDIUM 33 DEB",
        "meta_object_id": "1997-051CB",
        "meta_epoch": "2025-12-22T13:37:15.049920",
        "meta_mean_motion": 14.49630108,
        "meta_eccentricity": 0.00085054,
        "meta_inclination": 86.3912,
        "meta_ra_of_asc_node": 41.8093,
        "meta_arg_of_pericenter": 157.4604,
        "meta_mean_anomaly": 321.7914,
        "meta_ephemeris_type": 0,
        "meta_classification_type": "U",
        "meta_norad_cat_id": 33966,
        "meta_element_set_no": 999,
        "meta_rev_at_epoch": 88584,
        "meta_bstar": 0.00043607238,
        "meta_mean_motion_dot": 1.695e-05,
        "meta_mean_motion_ddot": 0,
        "tle_line1": "1 33966U 97051CB  25356.56753530  .00001695  00000+0  43607-3 0  9997",
        "tle_line2": "2 33966  86.3912  41.8093 0008505 157.4604 321.7914 14.49630108885844"
      },
      "geometry": {
        "type": "Point",
        "coordinates": [
          -138.01017280703448,
          -8.519985278926846
        ]
      }
    },
    {
      "type": "Feature",
      "properties": {
        "norad_id": 34071,
        "name": "IRIDIUM 33 DEB",
        "group": "iridium-33-debris",
        "lat": -69.63637859093161,
        "lon": -156.89257019302374,
        "alt_km": 741.5880397600267,
        "timestamp": "2025-12-23T09:49:07.467921+00:00",
        "meta_object_name": "IRIDIUM 33 DEB",
        "meta_object_id": "1997-051CE",
        "meta_epoch": "2025-12-22T12:47:17.503872",
        "meta_mean_motion": 14.49505346,
        "meta_eccentricity": 0.00099075,
        "meta_inclination": 86.3448,
        "meta_ra_of_asc_node": 13.5713,
        "meta_arg_of_pericenter": 81.226,
        "meta_mean_anomaly": 279.0066,
        "meta_ephemeris_type": 0,
        "meta_classification_type": "U",
        "meta_norad_cat_id": 34071,
        "meta_element_set_no": 999,
        "meta_rev_at_epoch": 88476,
        "meta_bstar": 0.000513667,
        "meta_mean_motion_dot": 1.989e-05,
        "meta_mean_motion_ddot": 0,
        "tle_line1": "1 34071U 97051CE  25356.53284148  .00001989  00000+0  51367-3 0  9994",
        "tle_line2": "2 34071  86.3448  13.5713 0009907  81.2260 279.0066 14.49505346884768"
      },
      "geometry": {
        "type": "Point",
        "coordinates": [
          -156.89257019302374,
          -69.63637859093161
        ]
      }
    },
    {
      "type": "Feature",
      "properties": {
        "norad_id": 34077,
        "name": "IRIDIUM 33 DEB",
        "group": "iridium-33-debris",
        "lat": -36.934142100999544,
        "lon": 44.08293402604911,
        "alt_km": 678.8758812545557,
        "timestamp": "2025-12-23T09:49:07.467932+00:00",
        "meta_object_name": "IRIDIUM 33 DEB",
        "meta_object_id": "1997-051CL",
        "meta_epoch": "2025-12-22T09:27:37.329984",
        "meta_mean_motion": 14.64940807,
        "meta_eccentricity": 0.00090827,
        "meta_inclination": 86.3849,
        "meta_ra_of_asc_node": 47.2542,
        "meta_arg_of_pericenter": 8.0354,
        "meta_mean_anomaly": 6.0314,
        "meta_ephemeris_type": 0,
        "meta_classification_type": "U",
        "meta_norad_cat_id": 34077,
        "meta_element_set_no": 999,
        "meta_rev_at_epoch": 88474,
        "meta_bstar": 0.00142765,
        "meta_mean_motion_dot": 7.665e-05,
        "meta_mean_motion_ddot": 0,
        "tle_line1": "1 34077U 97051CL  25356.39418206  .00007665  00000+0  14276-2 0  9992",
        "tle_line2": "2 34077  86.3849  47.2542 0009082   8.0354   6.0314 14.64940807884742"
      },
      "geometry": {
        "type": "Point",
        "coordinates": [
          44.08293402604911,
          -36.934142100999544
        ]
      }
    }
  ]
}